      2.10          N: GNSS NAV DATA                        RINEX VERSION / TYPE
fic2rin                                 03/22/2022 00:17:02 PGM / RUN BY / DATE
                                                            END OF HEADER
12 22  3 21 20  0  0.0-1.883711665869e-04-5.798028723802e-12 0.000000000000e+00
    9.100000000000e+01 9.550000000000e+01 4.734482924503e-09-1.173337632348e+00
    5.226582288742e-06 8.740134420805e-03 3.678724169731e-06 5.153582342148e+03
    1.584000000000e+05 6.519258022308e-08 1.711166122377e+00 1.545995473862e-07
    9.696073742791e-01 3.181562500000e+02 1.260230372693e+00-8.444280309598e-09
    3.378712165495e-10 1.000000000000e+00 2.202000000000e+03 0.000000000000e+00
    2.400000000000e+00 0.000000000000e+00-1.257285475731e-08 9.100000000000e+01
    1.512000000000e+05 4.000000000000e+00
15 22  3 21 20  0  0.0-7.502222433686e-05 2.955857780762e-12 0.000000000000e+00
    9.500000000000e+01-4.340625000000e+01 5.606304953676e-09 1.385664765082e+00
   -2.356246113777e-06 1.396697282325e-02 6.193295121193e-06 5.153749250412e+03
    1.584000000000e+05-2.756714820862e-07-5.802996453638e-01-5.774199962616e-08
    9.301957453351e-01 2.483437500000e+02 1.081324089169e+00-8.773579740527e-09
   -3.575148919303e-10 1.000000000000e+00 2.202000000000e+03 0.000000000000e+00
    2.400000000000e+00 0.000000000000e+00-1.071020960808e-08 9.500000000000e+01
    1.512000000000e+05 4.000000000000e+00
32 22  3 21 20  0  0.0-8.931569755077e-05-7.503331289627e-12 0.000000000000e+00
    9.100000000000e+01-4.446875000000e+01 4.698052835615e-09 2.981296314798e+00
   -2.257525920868e-06 5.781055544503e-03 7.124617695808e-06 5.153573007584e+03
    1.584000000000e+05 4.842877388000e-08-4.620161282091e-01-5.401670932770e-08
    9.582554079384e-01 2.406562500000e+02-2.317353664087e+00-8.064264480413e-09
   -2.842975564201e-10 1.000000000000e+00 2.202000000000e+03 0.000000000000e+00
    2.400000000000e+00 0.000000000000e+00 4.656612873077e-10 9.100000000000e+01
    1.512000000000e+05 4.000000000000e+00
21 22  3 21 20  0  0.0 1.596543006599e-04 4.547473508865e-13 0.000000000000e+00
    7.800000000000e+01-6.409375000000e+01 4.281964075277e-09 2.501290067080e+00
   -2.987682819366e-06 2.452962077223e-02 1.046806573868e-05 5.153572769165e+03
    1.584000000000e+05 3.799796104431e-07-2.628359914106e+00 1.750886440277e-07
    9.599368991449e-01 1.711250000000e+02-9.815800128732e-01-7.621388890010e-09
   -2.135803250493e-10 1.000000000000e+00 2.202000000000e+03 0.000000000000e+00
    2.400000000000e+00 0.000000000000e+00-1.024454832077e-08 7.800000000000e+01
    1.512000000000e+05 4.000000000000e+00
19 22  3 21 20  0  0.0 1.340396702290e-04 5.002220859751e-12 0.000000000000e+00
    1.030000000000e+02-8.403125000000e+01 4.338394997280e-09-1.577188455178e+00
   -4.228204488754e-06 9.059850242920e-03 5.491077899933e-06 5.153689216614e+03
    1.584000000000e+05-2.421438694000e-07 2.793885602790e+00 6.332993507385e-08
    9.784195641536e-01 2.832500000000e+02 2.021557424541e+00-8.170340327470e-09
   -3.871589838686e-10 1.000000000000e+00 2.202000000000e+03 0.000000000000e+00
    3.400000000000e+00 0.000000000000e+00-1.583248376846e-08 1.030000000000e+02
    1.512000000000e+05 4.000000000000e+00
26 22  3 21 20  0  0.0 1.926068216562e-04 2.955857780762e-12 0.000000000000e+00
    8.100000000000e+01 1.104375000000e+02 5.299149302267e-09-2.108304288548e+00
    5.438923835754e-06 6.931931595318e-03 5.220994353294e-06 5.153722906113e+03
    1.584000000000e+05 7.823109626770e-08 1.586295335271e+00-1.676380634308e-07
    9.379343552221e-01 2.665625000000e+02 3.831450519179e-01-8.632145277785e-09
    4.175173912752e-10 1.000000000000e+00 2.202000000000e+03 0.000000000000e+00
    2.400000000000e+00 0.000000000000e+00 6.984919309616e-09 8.100000000000e+01
    1.512000000000e+05 4.000000000000e+00
27 22  3 21 20  0  0.0 1.613255590200e-04 1.182343112305e-11 0.000000000000e+00
    9.400000000000e+01-7.212500000000e+01 4.504116185947e-09 2.349127187079e+00
   -3.896653652191e-06 1.043076498900e-02 4.056841135025e-06 5.153653034210e+03
    1.584000000000e+05-1.247972249985e-07 2.686357005849e+00-9.313225746155e-08
    9.731273190246e-01 3.101562500000e+02 6.549757426201e-01-8.182840848166e-09
   -3.364425856127e-10 1.000000000000e+00 2.202000000000e+03 0.000000000000e+00
    3.400000000000e+00 0.000000000000e+00 1.396983861923e-09 9.400000000000e+01
    1.512000000000e+05 4.000000000000e+00
20 22  3 21 20  0  0.0 5.161990411580e-04-2.273736754432e-13 0.000000000000e+00
    5.200000000000e+01 3.750000000000e+01 5.058782147153e-09 1.112849356425e+00
    2.009794116020e-06 5.037051858380e-03 7.612630724907e-06 5.153768587112e+03
    1.584000000000e+05-1.676380634308e-08-1.657383425518e+00 2.291053533554e-07
    9.418833358044e-01 2.243125000000e+02-3.126526092476e+00-8.330346992389e-09
    4.425184326689e-10 1.000000000000e+00 2.202000000000e+03 0.000000000000e+00
    2.400000000000e+00 0.000000000000e+00-8.381903171539e-09 5.200000000000e+01
    1.512000000000e+05 4.000000000000e+00
24 22  3 21 20  0  0.0 2.658115699887e-04-3.865352482535e-12 0.000000000000e+00
    6.900000000000e+01 4.081250000000e+01 4.938062832995e-09 4.304788986712e-01
    2.056360244751e-06 1.238200871740e-02 1.216866075993e-05 5.153700061798e+03
    1.584000000000e+05-6.332993507385e-08 5.147498074756e-01 1.620501279831e-07
    9.347819847361e-01 1.348437500000e+02 8.107787665672e-01-8.316774998490e-09
   -2.289381076197e-10 1.000000000000e+00 2.202000000000e+03 0.000000000000e+00
    2.400000000000e+00 0.000000000000e+00 2.328306436539e-09 6.900000000000e+01
    1.512000000000e+05 4.000000000000e+00
13 22  3 21 20  0  0.0 2.807262353599e-04 6.366462912410e-12 0.000000000000e+00
    9.900000000000e+01-4.265625000000e+01 4.451256841286e-09 1.849746592136e+00
   -2.210959792137e-06 5.829983158037e-03 8.035451173782e-06 5.153670650482e+03
    1.584000000000e+05-1.117587089539e-07-3.200032810554e-01-5.960464477539e-08
    9.689319610940e-01 2.280312500000e+02 9.423836376954e-01-8.024619971918e-09
   -3.882304570711e-10 1.000000000000e+00 2.202000000000e+03 0.000000000000e+00
    2.400000000000e+00 0.000000000000e+00-1.117587089539e-08 9.900000000000e+01
    1.512000000000e+05 4.000000000000e+00
17 22  3 21 20  0  0.0 5.902256816626e-04 5.002220859751e-12 0.000000000000e+00
    1.050000000000e+02-8.062500000000e+01 4.235176412097e-09 2.281813312832e+00
   -4.196539521217e-06 1.349992153700e-02 4.302710294724e-06 5.153778108597e+03
    1.584000000000e+05 1.396983861923e-07 2.749048590005e+00-1.471489667892e-07
    9.796128093770e-01 3.001250000000e+02-1.492840627604e+00-7.920687071267e-09
   -4.800199947595e-10 1.000000000000e+00 2.202000000000e+03 0.000000000000e+00
    2.400000000000e+00 0.000000000000e+00-1.117587089539e-08 1.050000000000e+02
    1.512000000000e+05 4.000000000000e+00
25 22  3 21 20  0  0.0 3.014402464032e-04 5.115907697473e-12 0.000000000000e+00
    1.030000000000e+02 1.078437500000e+02 4.942348725805e-09-1.452086892745e+00
    5.749985575676e-06 1.057116640732e-02 4.146248102188e-06 5.153697219849e+03
    1.584000000000e+05 2.551823854446e-07 1.633972569859e+00 5.587935447693e-08
    9.570764963863e-01 2.970625000000e+02 9.912877748633e-01-8.453923568421e-09
    3.878732993369e-10 1.000000000000e+00 2.202000000000e+03 0.000000000000e+00
    3.400000000000e+00 0.000000000000e+00 5.587935447693e-09 1.030000000000e+02
    1.512000000000e+05 4.000000000000e+00
23 22  3 21 20  0  0.0-8.724629878998e-06-3.183231456205e-12 0.000000000000e+00
    2.080000000000e+02 2.287500000000e+01 4.522688388125e-09-6.176388445770e-01
    1.128762960434e-06 2.022479195148e-03 7.366761565208e-06 5.153697957993e+03
    1.584000000000e+05 1.005828380585e-07-1.529619119576e+00-8.568167686462e-08
    9.674860465115e-01 2.448437500000e+02 2.999533244679e+00-8.063550164945e-09
    4.057311860468e-10 1.000000000000e+00 2.202000000000e+03 0.000000000000e+00
    2.400000000000e+00 0.000000000000e+00-8.381903171539e-09 2.080000000000e+02
    1.512000000000e+05 4.000000000000e+00
14 22  3 21 20  0  0.0-9.600725024939e-05-3.524291969370e-12 0.000000000000e+00
    9.900000000000e+01 8.618750000000e+01 4.978778814693e-09-1.118307468669e+00
    4.459172487259e-06 1.573959947564e-03 4.187226295471e-06 5.153653543472e+03
    1.584000000000e+05 1.676380634308e-08 1.679300905143e+00 3.911554813385e-08
    9.530231673203e-01 2.943125000000e+02 3.027896537393e+00-8.497853969727e-09
    2.828689254833e-10 1.000000000000e+00 2.202000000000e+03 0.000000000000e+00
    2.400000000000e+00 0.000000000000e+00-7.450580596924e-09 6.110000000000e+02
    1.512000000000e+05 4.000000000000e+00
18 22  3 21 20  0  0.0 2.145017497241e-04-8.867573342286e-12 0.000000000000e+00
    1.710000000000e+02-6.368750000000e+01 4.018381667440e-09 3.814539303216e-01
   -3.470107913017e-06 2.143651130609e-03 1.216866075993e-05 5.153619396210e+03
    1.584000000000e+05 9.313225746155e-09-2.529266628622e+00 1.862645149231e-09
    9.711749304998e-01 1.468750000000e+02 3.080073672883e+00-7.822111536628e-09
   -1.250052069686e-11 1.000000000000e+00 2.202000000000e+03 0.000000000000e+00
    2.400000000000e+00 0.000000000000e+00-8.381903171539e-09 9.390000000000e+02
    1.512000000000e+05 4.000000000000e+00
28 22  3 21 20  0  0.0 3.754086792469e-04-8.412825991400e-12 0.000000000000e+00
    7.200000000000e+01 8.975000000000e+01 4.617335187687e-09 2.792915835858e+00
    4.572793841362e-06 1.671210769564e-02 3.406777977943e-06 5.153692420959e+03
    1.584000000000e+05 3.110617399216e-07 1.733229216480e+00 8.009374141693e-08
    9.686879902459e-01 3.154375000000e+02-1.283351892415e+00-8.084622471263e-09
    1.692927660089e-10 1.000000000000e+00 2.202000000000e+03 0.000000000000e+00
    3.400000000000e+00 6.300000000000e+01-1.117587089539e-08 7.200000000000e+01
    1.512000000000e+05 4.000000000000e+00
